ONEWEB-0283             
1 49001U 21060AL  25074.36768200 -.00000535  00000+0 -14326-2 0  9995
2 49001  87.9091 320.2515 0002256  80.6689 279.4697 13.16596884180565
ONEWEB-0284             
1 49002U 21060AM  25074.43735585  .00000108  00000+0  24912-3 0  9991
2 49002  87.9084 320.2054 0001515  69.8097 290.3196 13.16598332180549
ONEWEB-0285             
1 49075U 21075A   25074.03632432 -.00000278  00000+0 -80923-3 0  9994
2 49075  87.8803  82.0455 0001852  88.2584 271.8757 13.12439079175960
ONEWEB-0286             
1 49076U 21075B   25073.93158669  .00000557  00000+0  15119-2 0  9990
2 49076  87.8800  82.0612 0001725  95.5967 264.5358 13.12442532174321
ONEWEB-0287             
1 49077U 21075C   25073.75282900  .00000031  00000+0  46892-4 0  9998
2 49077  87.9009  97.3823 0001538 101.8907 258.2397 13.17650249173125
ONEWEB-0288             
1 49078U 21075D   25073.76530639  .00000286  00000+0  75865-3 0  9998
2 49078  87.8798  82.0968 0001720  86.4213 273.7112 13.12443294174923
ONEWEB-0289             
1 49079U 21075E   25073.78152624  .00000064  00000+0  13252-3 0  9991
2 49079  87.9009  97.4071 0001785  77.1046 283.0285 13.17650404173705
ONEWEB-0290             
1 49080U 21075F   25073.76464907  .00000060  00000+0  12111-3 0  9990
2 49080  87.9007  97.3678 0002109  73.0514 287.0849 13.17650157173113
